NORAD_CAT_ID,OBJECT_NAME,OBJECT_TYPE,EPOCH,MEAN_MOTION,ECCENTRICITY,INCLINATION,RA_OF_ASC_NODE,ARG_OF_PERICENTER,MEAN_ANOMALY,BSTAR,MEAN_MOTION_DOT,MEAN_MOTION_DDOT,TLE_LINE0,TLE_LINE1,TLE_LINE2,SEMIMAJOR_AXIS,PERIOD,APOGEE,PERIGEE,DECAYED
52626.0,STARLINK-3990,PAYLOAD,2022-11-26 19:01:01,15.08853596,0.0001886,53.2183,251.1905,64.765,295.3537,0.00031029,4.655e-05,0.0,0 STARLINK-3990,1 52626U 22052AE  22330.79237541  .00004655  00000-0  31029-3 0  9998,2 52626  53.2183 251.1905 0001886  64.7650 295.3537 15.08853596 29992,6917.839,95.437,541.009,538.399,0.0
52626.0,STARLINK-3990,PAYLOAD,2022-11-27 04:33:20,15.08847952,0.0001876,53.2183,249.4065,64.069,296.0495,0.0001437,2e-05,0.0,0 STARLINK-3990,1 52626U 22052AE  22331.18981552  .00002000  00000-0  14370-3 0  9992,2 52626  53.2183 249.4065 0001876  64.0690 296.0495 15.08847952 30436,6917.856,95.437,541.019,538.423,0.0
52626.0,STARLINK-3990,PAYLOAD,2022-11-27 18:51:48,15.08833587,0.0001594,53.2184,246.7308,55.3982,304.716,-4.3266e-05,-9.76e-06,0.0,0 STARLINK-3990,1 52626U 22052AE  22331.78598214 -.00000976  00000-0 -43266-4 0  9996,2 52626  53.2184 246.7308 0001594  55.3982 304.7160 15.08833587 30526,6917.9,95.438,540.868,538.6619999999998,0.0
52626.0,STARLINK-3990,PAYLOAD,2022-11-28 04:24:07,15.08829179,0.0001712,53.2169,244.9452,63.78,296.3368,-8.4251e-05,-1.628e-05,0.0,0 STARLINK-3990,1 52626U 22052AE  22332.18342443 -.00001628  00000-0 -84251-4 0  9996,2 52626  53.2169 244.9452 0001712  63.7800 296.3368 15.08829179 30206,6917.913000000001,95.438,540.9630000000002,538.594,0.0
52626.0,STARLINK-3990,PAYLOAD,2022-11-28 20:17:59,15.08834655,0.000175,53.2171,241.9734,53.07100000000001,307.0442,-5.6068e-05,-1.18e-05,0.0,0 STARLINK-3990,1 52626U 22052AE  22332.84582463 -.00001180  00000-0 -56068-4 0  9995,2 52626  53.2171 241.9734 0001750  53.0710 307.0442 15.08834655 30683,6917.897,95.438,540.972,538.5509999999998,0.0
52626.0,STARLINK-3990,PAYLOAD,2022-11-29 10:36:27,15.08835215,0.0001469,53.2176,239.2967,65.7772,294.3373,4.8394e-05,4.82e-06,0.0,0 STARLINK-3990,1 52626U 22052AE  22333.44198690  .00000482  00000-0  48394-4 0  9992,2 52626  53.2176 239.2967 0001469  65.7772 294.3373 15.08835215 30393,6917.895,95.438,540.776,538.744,0.0
52626.0,STARLINK-3990,PAYLOAD,2022-11-29 18:33:23,15.08836408,0.0001631999999999,53.2182,237.8096,52.6436,307.4705,0.00018322,2.629e-05,0.0,0 STARLINK-3990,1 52626U 22052AE  22333.77318605  .00002629  00000-0  18322-3 0  9990,2 52626  53.2182 237.8096 0001632  52.6436 307.4705 15.08836408 30447,6917.891,95.438,540.885,538.627,0.0
52626.0,STARLINK-3990,PAYLOAD,2022-11-30 00:54:56,15.08833406,0.000164,53.2173,236.6203,53.2728,306.8414,0.00011312,1.512e-05,0.0,0 STARLINK-3990,1 52626U 22052AE  22334.03815003  .00001512  00000-0  11312-3 0  9996,2 52626  53.2173 236.6203 0001640  53.2728 306.8414 15.08833406 30865,6917.901,95.438,540.9,538.631,0.0
52626.0,STARLINK-3990,PAYLOAD,2022-11-30 18:24:10,15.08838343,0.0001605,53.2185,233.3493,53.9707,306.1434,0.0002071,3.009e-05,0.0,0 STARLINK-3990,1 52626U 22052AE  22334.76678770  .00003009  00000-0  20710-3 0  9999,2 52626  53.2185 233.3493 0001605  53.9707 306.1434 15.08838343 30598,6917.885,95.438,540.861,538.64,0.0
52626.0,STARLINK-3990,PAYLOAD,2022-11-30 19:59:33,15.08840162,0.0001609,53.2184,233.0519,54.3001,305.8141,0.00022193,3.246e-05,0.0,0 STARLINK-3990,1 52626U 22052AE  22334.83302671  .00003246  00000-0  22193-3 0  9991,2 52626  53.2184 233.0519 0001609  54.3001 305.8141 15.08840162 30985,6917.88,95.438,540.8580000000002,538.632,0.0
52626.0,STARLINK-3990,PAYLOAD,2022-12-01 10:18:01,15.08840168,0.000161,53.2175,230.3761,56.3516,303.763,9.4094e-05,1.21e-05,0.0,0 STARLINK-3990,1 52626U 22052AE  22335.42918832  .00001210  00000-0  94094-4 0  9998,2 52626  53.2175 230.3761 0001610  56.3516 303.7630 15.08840168 30693,6917.88,95.438,540.859,538.631,0.0
52626.0,STARLINK-3990,PAYLOAD,2022-12-01 18:14:57,15.08850904,0.000161,53.2173,228.8893,62.3155,297.8,0.00016731,2.376e-05,0.0,0 STARLINK-3990,1 52626U 22052AE  22335.76038265  .00002376  00000-0  16731-3 0  9993,2 52626  53.2173 228.8893 0001610  62.3155 297.8000 15.08850904 30744,6917.847,95.437,540.826,538.5980000000002,0.0
52626.0,STARLINK-3990,PAYLOAD,2022-12-02 02:11:52,15.08855218,0.0001754999999999,53.2171,227.4021,55.1201,304.9956,0.00028873,4.312e-05,0.0,0 STARLINK-3990,1 52626U 22052AE  22336.09157932  .00004312  00000-0  28873-3 0  9995,2 52626  53.2171 227.4021 0001755  55.1201 304.9956 15.08855218 31173,6917.834,95.437,540.913,538.485,0.0
52626.0,STARLINK-3990,PAYLOAD,2022-12-02 10:08:48,15.08851638,0.0001784,53.2172,225.9154,58.1094,302.0071,0.0002215,3.24e-05,0.0,0 STARLINK-3990,1 52626U 22052AE  22336.42278053  .00003240  00000-0  22150-3 0  9991,2 52626  53.2172 225.9154 0001784  58.1094 302.0071 15.08851638 30841,6917.845,95.437,540.944,538.476,0.0
52626.0,STARLINK-3990,PAYLOAD,2022-12-02 16:30:20,15.08853163,0.000181,53.2167,224.7259,59.1353,300.9817,0.00017605,2.516e-05,0.0,0 STARLINK-3990,1 52626U 22052AE  22336.68773804  .00002516  00000-0  17605-3 0  9997,2 52626  53.2167 224.7259 0001810  59.1353 300.9817 15.08853163 31264,6917.84,95.437,540.957,538.453,0.0
52626.0,STARLINK-3990,PAYLOAD,2022-12-03 00:27:16,15.08840157,0.0001720999999999,53.2169,223.2387,58.7507,301.3653,-6.3839e-05,-1.304e-05,0.0,0 STARLINK-3990,1 52626U 22052AE  22337.01894165 -.00001304  00000-0 -63839-4 0  9996,2 52626  53.2169 223.2387 0001721  58.7507 301.3653 15.08840157 31317,6917.88,95.438,540.935,538.554,0.0
52626.0,STARLINK-3990,PAYLOAD,2022-12-03 09:59:35,15.08844654,0.0001645,53.2172,221.4537,61.2716,298.8442,8.445700000000001e-05,1.057e-05,0.0,0 STARLINK-3990,1 52626U 22052AE  22337.41637971  .00001057  00000-0  84457-4 0  9992,2 52626  53.2172 221.4537 0001645  61.2716 298.8442 15.08844654 30999,6917.866,95.437,540.869,538.5930000000002,0.0
52626.0,STARLINK-3990,PAYLOAD,2022-12-04 01:53:27,15.08840364,0.0001822,53.2178,218.4821,58.3546,301.7624,-3.7894e-05,-8.91e-06,0.0,0 STARLINK-3990,1 52626U 22052AE  22338.07878674 -.00000891  00000-0 -37894-4 0  9992,2 52626  53.2178 218.4821 0001822  58.3546 301.7624 15.08840364 31476,6917.879,95.438,541.005,538.484,0.0
52626.0,STARLINK-3990,PAYLOAD,2022-12-04 16:11:54,15.0884531,0.0001734,53.2177,215.8064,58.0187,302.0974,6.1009e-05,6.83e-06,0.0,0 STARLINK-3990,1 52626U 22052AE  22338.67494013  .00000683  00000-0  61009-4 0  9991,2 52626  53.2177 215.8064 0001734  58.0187 302.0974 15.08845310 31563,6917.864000000001,95.437,540.929,538.53,0.0
52626.0,STARLINK-3990,PAYLOAD,2022-12-05 01:44:13,15.08840944,0.0001786,53.2179,214.0232,55.8087,304.3074,0.00014127,1.961e-05,0.0,0 STARLINK-3990,1 52626U 22052AE  22339.07238167  .00001961  00000-0  14127-3 0  9990,2 52626  53.2179 214.0232 0001786  55.8087 304.3074 15.08840944 31243,6917.878000000002,95.437,540.9780000000002,538.507,0.0
52626.0,STARLINK-3990,PAYLOAD,2022-12-05 16:02:42,15.08835105,0.0001728,53.2175,211.3464,56.0651,304.0505,0.00014068,1.951e-05,0.0,0 STARLINK-3990,1 52626U 22052AE  22339.66854623  .00001951  00000-0  14068-3 0  9999,2 52626  53.2175 211.3464 0001728  56.0651 304.0505 15.08835105 31713,6917.895,95.438,540.956,538.565,0.0
52626.0,STARLINK-3990,PAYLOAD,2022-12-05 19:13:28,15.08842935,0.0001749,53.2168,210.7515,55.5656,304.5502,0.000218,3.183e-05,0.0,0 STARLINK-3990,1 52626U 22052AE  22339.80102362  .00003183  00000-0  21800-3 0  9992,2 52626  53.2168 210.7515 0001749  55.5656 304.5502 15.08842935 31358,6917.871,95.437,540.946,538.526,0.0
52626.0,STARLINK-3990,PAYLOAD,2022-12-06 01:35:00,15.08850129,0.0001805,53.2167,209.5619,57.9409,302.1758,0.00027047,4.02e-05,0.0,0 STARLINK-3990,1 52626U 22052AE  22340.06597939  .00004020  00000-0  27047-3 0  9990,2 52626  53.2167 209.5619 0001805  57.9409 302.1758 15.08850129 31770,6917.849,95.437,540.9630000000002,538.466,0.0
52626.0,STARLINK-3990,PAYLOAD,2022-12-06 07:56:33,15.08839461,0.0001821,53.2163,208.3717,57.0198,303.0969,6.714e-05,7.81e-06,0.0,0 STARLINK-3990,1 52626U 22052AE  22340.33094447  .00000781  00000-0  67140-4 0  9995,2 52626  53.2163 208.3717 0001821  57.0198 303.0969 15.08839461 31811,6917.882,95.438,541.007,538.487,0.0
52626.0,STARLINK-3990,PAYLOAD,2022-12-06 14:18:06,15.08841367,0.0002051,53.2166,207.1817,64.5468,295.5736,-1.2239e-05,-4.83e-06,0.0,0 STARLINK-3990,1 52626U 22052AE  22340.59590445 -.00000483  00000-0 -12239-4 0  9992,2 52626  53.2166 207.1817 0002051  64.5468 295.5736 15.08841367 31478,6917.876,95.437,541.16,538.322,0.0
52626.0,STARLINK-3990,PAYLOAD,2022-12-06 23:50:25,15.08831459,0.000176,53.2181,205.3974,64.3635,295.7538,-9.035e-05,-1.725e-05,0.0,0 STARLINK-3990,1 52626U 22052AE  22340.99335568 -.00001725  00000-0 -90350-4 0  9999,2 52626  53.2181 205.3974 0001760  64.3635 295.7538 15.08831459 31911,6917.906,95.438,540.989,538.554,0.0
52626.0,STARLINK-3990,PAYLOAD,2022-12-07 17:19:37,15.08870953,0.0002239,53.2171,202.1278,69.3807,290.7425,0.0002619,3.886e-05,0.0,0 STARLINK-3990,1 52626U 22052AE  22341.72196381  .00003886  00000-0  26190-3 0  9997,2 52626  53.2171 202.1278 0002239  69.3807 290.7425 15.08870953 32025,6917.786,95.436,541.2,538.102,0.0
52626.0,STARLINK-3990,PAYLOAD,2022-12-08 01:16:34,15.08852233,0.0001604,53.2175,200.6411,54.4781,305.6361,9.2988e-05,1.193e-05,0.0,0 STARLINK-3990,1 52626U 22052AE  22342.05317497  .00001193  00000-0  92988-4 0  9995,2 52626  53.2175 200.6411 0001604  54.4781 305.6361 15.08852233 32073,6917.843000000003,95.437,540.818,538.5980000000002,0.0
52626.0,STARLINK-3990,PAYLOAD,2022-12-08 07:38:07,15.08848331,0.000174,53.2176,199.4512,53.7175,306.3977,5.518e-05,5.9e-06,0.0,0 STARLINK-3990,1 52626U 22052AE  22342.31813708  .00000590  00000-0  55180-4 0  9993,2 52626  53.2176 199.4512 0001740  53.7175 306.3977 15.08848331 31738,6917.855,95.437,540.924,538.516,0.0
